line1,line2,validFromUtcTime
1 00000U 00000E   26001.00000000  .00000000  00000-0  27772-4 0    01,2 00000  89.0018   0.3301 0010162 269.7030 330.4429 13.55275998    01,2026-01-01T00:00:00Z
1 00000U 00000E   26002.00000000  .00000000  00000-0  27772-4 0    02,2 00000  89.0018   0.2286 0010162 266.7921 169.4350 13.55276036    05,2026-01-02T00:00:00Z
